#
# this file is automatically produced by convkeps.pl
#
# Last update: Sat Nov 16 13:29:36 2002
#

package Sun;

%keps = (
  'SO-33' => {
    orbit => '21143',
    elset => '712',
    argperigee => '175.4711',
    epoch => '2317.50184536',
    bstar => '0.00022367',
    number => '98061',
    raan => '341.2463',
    mm1 => '1.174e-05',
    meanmotion => '14.27197772',
    mm2 => '0',
    id => '25509',
    meananomaly => '184.9282',
    eccentricity => '0.0358296',
    inclination => '31.4313'
  },
  'RS-10/11' => {
    orbit => '77123',
    elset => '169',
    argperigee => '127.9491',
    epoch => '2317.78523508',
    bstar => '0.00012808',
    number => '87054',
    raan => '218.1142',
    mm1 => '1.33e-06',
    meanmotion => '13.72687186',
    mm2 => '0',
    id => '18129',
    meananomaly => '232.2759',
    eccentricity => '0.0012189',
    inclination => '82.9278'
  },
  'TO-31' => {
    orbit => '22591',
    elset => '789',
    argperigee => '74.45',
    epoch => '2318.87183731',
    bstar => '0',
    number => '98043',
    raan => '32.7943',
    mm1 => '-4.3e-07',
    meanmotion => '14.23462999',
    mm2 => '0',
    id => '25396',
    meananomaly => '285.7073',
    eccentricity => '0.0003522',
    inclination => '98.6397'
  },
  'GO-32' => {
    orbit => '22575',
    elset => '83',
    argperigee => '73.3259',
    epoch => '2317.9426453',
    bstar => '0.00012936',
    number => '98043',
    raan => '30.8802',
    mm1 => '2.48e-06',
    meanmotion => '14.22926806',
    mm2 => '0',
    id => '25397',
    meananomaly => '286.8152',
    eccentricity => '0.0002134',
    inclination => '98.6342'
  },
  'AO-07' => {
    orbit => '28104',
    elset => '128',
    argperigee => '264.7761',
    epoch => '2317.64669727',
    bstar => '0.0001',
    number => '74089',
    raan => '1.2872',
    mm1 => '-2.9e-07',
    meanmotion => '12.53561413',
    mm2 => '0',
    id => '7530',
    meananomaly => '95.1924',
    eccentricity => '0.0012145',
    inclination => '101.7799'
  },
  'UO-11' => {
    orbit => '210',
    elset => '991',
    argperigee => '151.0466',
    epoch => '2318.87178882',
    bstar => '0.00047255',
    number => '84021',
    raan => '287.1722',
    mm1 => '3.328e-05',
    meanmotion => '14.77596088',
    mm2 => '0',
    id => '14781',
    meananomaly => '209.129',
    eccentricity => '0.0009809',
    inclination => '98.1047'
  },
  'AO-40' => {
    orbit => '936',
    elset => '283',
    argperigee => '111.0886',
    epoch => '2317.35494385',
    bstar => '0.0001',
    number => '72',
    raan => '82.5813',
    mm1 => '-2.95e-06',
    meanmotion => '1.2559781',
    mm2 => '0',
    id => '26609',
    meananomaly => '343.7439',
    eccentricity => '0.7932482',
    inclination => '7.7549'
  },
  'MET-3/5' => {
    orbit => '54076',
    elset => '607',
    argperigee => '80.4326',
    epoch => '2317.9624753',
    bstar => '0.0001',
    number => '91056',
    raan => '107.1179',
    mm1 => '5.1e-07',
    meanmotion => '13.16973476',
    mm2 => '0',
    id => '21655',
    meananomaly => '279.8424',
    eccentricity => '0.0014427',
    inclination => '82.5525'
  },
  'MO-46' => {
    orbit => '11499',
    elset => '373',
    argperigee => '251.9881',
    epoch => '2317.53798092',
    bstar => '0.00052762',
    number => '57',
    raan => '324.017',
    mm1 => '4.026e-05',
    meanmotion => '14.80795362',
    mm2 => '0',
    id => '26548',
    meananomaly => '107.5668',
    eccentricity => '0.0051132',
    inclination => '64.5578'
  },
  'UO-14' => {
    orbit => '66877',
    elset => '95',
    argperigee => '122.4492',
    epoch => '2318.65092874',
    bstar => '0.00015557',
    number => '90005',
    raan => '1.782',
    mm1 => '3.7e-06',
    meanmotion => '14.31190742',
    mm2 => '0',
    id => '20437',
    meananomaly => '237.7782',
    eccentricity => '0.0011296',
    inclination => '98.2873'
  },
  'NOAA-10' => {
    orbit => '84026',
    elset => '556',
    argperigee => '9.7709',
    epoch => '2318.91162825',
    bstar => '0.00021931',
    number => '86073',
    raan => '308.2698',
    mm1 => '4.9e-06',
    meanmotion => '14.27006914',
    mm2 => '0',
    id => '16969',
    meananomaly => '350.3722',
    eccentricity => '0.0013026',
    inclination => '98.7226'
  },
  FENGYUN1 => {
    orbit => '18100',
    elset => '701',
    argperigee => '279.1656',
    epoch => '2317.97969747',
    bstar => '4.9896e-05',
    number => '99025',
    raan => '340.9785',
    mm1 => '4.9e-07',
    meanmotion => '14.11718948',
    mm2 => '0',
    id => '25730',
    meananomaly => '80.7976',
    eccentricity => '0.001361',
    inclination => '98.6439'
  },
  'NOAA-11' => {
    orbit => '72927',
    elset => '394',
    argperigee => '112.4114',
    epoch => '2318.87771771',
    bstar => '0.00026501',
    number => '88089',
    raan => '35.5232',
    mm1 => '4.64e-06',
    meanmotion => '14.1447801',
    mm2 => '0',
    id => '19531',
    meananomaly => '247.837',
    eccentricity => '0.0012375',
    inclination => '98.9112'
  },
  'AO-27' => {
    orbit => '47608',
    elset => '443',
    argperigee => '178.4041',
    epoch => '2317.98060134',
    bstar => '0.00016238',
    number => '93061',
    raan => '347.5584',
    mm1 => '3.69e-06',
    meanmotion => '14.28893762',
    mm2 => '0',
    id => '22825',
    meananomaly => '181.7169',
    eccentricity => '0.000828',
    inclination => '98.2856'
  },
  'RS-15' => {
    orbit => '32468',
    elset => '679',
    argperigee => '134.0099',
    epoch => '2317.79662527',
    bstar => '0.00063456',
    number => '94085',
    raan => '197.9705',
    mm1 => '-2e-07',
    meanmotion => '11.27547952',
    mm2 => '0',
    id => '23439',
    meananomaly => '227.3256',
    eccentricity => '0.0149515',
    inclination => '64.8172'
  },
  'NOAA-12' => {
    orbit => '59759',
    elset => '861',
    argperigee => '304.0769',
    epoch => '2318.92328888',
    bstar => '0.00038744',
    number => '91032',
    raan => '305.2309',
    mm1 => '8.64e-06',
    meanmotion => '14.24987621',
    mm2 => '0',
    id => '21263',
    meananomaly => '55.9256',
    eccentricity => '0.0012153',
    inclination => '98.6174'
  },
  'NO-44' => {
    orbit => '5854',
    elset => '332',
    argperigee => '249.9732',
    epoch => '2317.94465526',
    bstar => '0.00023928',
    number => '1043',
    raan => '144.3513',
    mm1 => '5.24e-06',
    meanmotion => '14.29034529',
    mm2 => '0',
    id => '26931',
    meananomaly => '110.0696',
    eccentricity => '0.0006245',
    inclination => '67.0509'
  },
  'NO-45' => {
    orbit => '5869',
    elset => '323',
    argperigee => '247.0288',
    epoch => '2318.84515573',
    bstar => '0.00015965',
    number => '1043',
    raan => '141.7626',
    mm1 => '3.24e-06',
    meanmotion => '14.29237067',
    mm2 => '0',
    id => '26932',
    meananomaly => '112.995',
    eccentricity => '0.0008175',
    inclination => '67.0544'
  },
  'NOAA-14' => {
    orbit => '40596',
    elset => '417',
    argperigee => '134.6192',
    epoch => '2318.89865783',
    bstar => '0.00020749',
    number => '94089',
    raan => '329.9421',
    mm1 => '3.42e-06',
    meanmotion => '14.1324742',
    mm2 => '0',
    id => '23455',
    meananomaly => '225.578',
    eccentricity => '0.0009811',
    inclination => '99.1925'
  },
  'NOAA-15' => {
    orbit => '23418',
    elset => '895',
    argperigee => '234.3381',
    epoch => '2318.91246653',
    bstar => '0.0002092',
    number => '98030',
    raan => '338.6377',
    mm1 => '4.39e-06',
    meanmotion => '14.24184861',
    mm2 => '0',
    id => '25338',
    meananomaly => '125.6896',
    eccentricity => '0.0009693',
    inclination => '98.5587'
  },
  'RS-12/13' => {
    orbit => '59050',
    elset => '483',
    argperigee => '192.8707',
    epoch => '2317.86219977',
    bstar => '0.00012201',
    number => '91007',
    raan => '253.1195',
    mm1 => '1.31e-06',
    meanmotion => '13.74391092',
    mm2 => '0',
    id => '21089',
    meananomaly => '167.1731',
    eccentricity => '0.0028208',
    inclination => '82.9216'
  },
  'UO-36' => {
    orbit => '19206',
    elset => '436',
    argperigee => '312.3265',
    epoch => '2318.42783539',
    bstar => '0.00019334',
    number => '99021',
    raan => '305.0139',
    mm1 => '1.207e-05',
    meanmotion => '14.76238147',
    mm2 => '0',
    id => '25693',
    meananomaly => '47.6859',
    eccentricity => '0.0011615',
    inclination => '64.5585'
  },
  HUBBLE => {
    orbit => '48801',
    elset => '214',
    argperigee => '315.2833',
    epoch => '2317.11891471',
    bstar => '0.00044815',
    number => '90037',
    raan => '310.9019',
    mm1 => '5.475e-05',
    meanmotion => '14.97258658',
    mm2 => '0',
    id => '20580',
    meananomaly => '110.5705',
    eccentricity => '0.0003751',
    inclination => '28.4678'
  },
  'NOAA-16' => {
    orbit => '11062',
    elset => '79',
    argperigee => '214.4794',
    epoch => '2318.69833372',
    bstar => '0.00045115',
    number => '55',
    raan => '262.7584',
    mm1 => '7.79e-06',
    meanmotion => '14.11832854',
    mm2 => '0',
    id => '26536',
    meananomaly => '145.573',
    eccentricity => '0.0009828',
    inclination => '98.8882'
  },
  'NOAA-17' => {
    orbit => '2035',
    elset => '194',
    argperigee => '275.4329',
    epoch => '2318.88593485',
    bstar => '0.00028711',
    number => '2032',
    raan => '25.5333',
    mm1 => '6.05e-06',
    meanmotion => '14.23213679',
    mm2 => '0',
    id => '27453',
    meananomaly => '84.5583',
    eccentricity => '0.0011059',
    inclination => '98.771'
  },
  'WO-18' => {
    orbit => '66876',
    elset => '962',
    argperigee => '131.4311',
    epoch => '2317.96867138',
    bstar => '0.00018987',
    number => '90005',
    raan => '15.1825',
    mm1 => '4.63e-06',
    meanmotion => '14.31497838',
    mm2 => '0',
    id => '20441',
    meananomaly => '228.793',
    eccentricity => '0.0012291',
    inclination => '98.3498'
  },
  'SICH-1' => {
    orbit => '38794',
    elset => '980',
